ZIYUAN 3-02 (ZY 3-02)   
1 41556U 16033A   26191.86877980  .00003253  00000+0  14776-3 0  9996
2 41556  97.3831 267.1874 0013629 200.2475 159.8222 15.21408006561581
